IRIDIUM 921             
1 24873U 97034E   24134.90788049  .00036820  00000+0  10141-2 0  9993
2 24873  86.3793 305.0657 0004284  46.3873 313.7734 15.36982282470192
IRIDIUM 26              
1 24903U 97043A   24134.49700396  .00001487  00000+0  50196-3 0  9996
2 24903  86.3926 278.3140 0002061  86.9904 273.1529 14.36341750399356
IRIDIUM 22              
1 24907U 97043E   24134.80471795  .00001398  00000+0  48205-3 0  9992
2 24907  86.3928 281.3966 0002149  92.8419 267.3024 14.35232513399479
DUMMY MASS 1            
1 24925U 97048A   24134.78778878  .00001137  00000+0  12630-3 0  9990
2 24925  86.3318 319.8944 0008925 113.8791 246.3370 14.86186522445792
DUMMY MASS 2            
1 24926U 97048B   24135.02084739  .00001154  00000+0  12903-3 0  9997
2 24926  86.3319 321.3239 0009524 122.6265 237.5880 14.85945659445857
IRIDIUM 29              
1 24944U 97051A   24135.02739904  .00001268  00000+0  43287-3 0  9997
2 24944  86.3921 311.2353 0002367  93.2053 266.9414 14.35682505396203
IRIDIUM 33              
1 24946U 97051C   24134.74310484  .00000874  00000+0  30424-3 0  9996
2 24946  86.3835 310.6081 0006182 313.1136  46.9542 14.34345837395474
IRIDIUM 28              
1 24948U 97051E   24134.77533565  .00001312  00000+0  43952-3 0  9996
2 24948  86.3925 309.0840 0001880  80.8155 279.3254 14.36632938396487
